{
  "type": "FeatureCollection",
  "features": [
    {
      "type": "Feature",
      "properties": {
        "name": "Agdal",
        "id": 13,
        "color_rgb": [
          233,
          0,
          138
        ],
        "area_px": 15633,
        "centroid_lat": 31.605523,
        "centroid_lon": -8.005397
      },
      "geometry": {
        "type": "Polygon",
        "coordinates": [
          [
            [
              -8.000268,
              31.616374
            ],
            [
              -8.002771,
              31.613938
            ],
            [
              -8.00322,
              31.613331
            ],
            [
              -8.003503,
              31.613223
            ],
            [
              -8.006785,
              31.609968
            ],
            [
              -8.007046,
              31.609258
            ],
            [
              -8.007201,
              31.60554
            ],
            [
              -8.00758,
              31.604698
            ],
            [
              -8.009448,
              31.602243
            ],
            [
              -8.010016,
              31.601242
            ],
            [
              -8.0099,
              31.600851
            ],
            [
              -8.011027,
              31.595106
            ],
            [
              -8.010414,
              31.595427
            ],
            [
              -8.006803,
              31.598634
            ],
            [
              -8.006237,
              31.598849
            ],
            [
              -8.006268,
              31.596834
            ],
            [
              -8.005962,
              31.596863
            ],
            [
              -8.005137,
              31.597527
            ],
            [
              -8.004139,
              31.599998
            ],
            [
              -8.001425,
              31.608875
            ],
            [
              -7.998884,
              31.61542
            ],
            [
              -7.999821,
              31.616457
            ],
            [
              -8.000268,
              31.616374
            ]
          ]
        ]
      }
    },
    {
      "type": "Feature",
      "properties": {
        "name": "Al Massar",
        "id": 33,
        "color_rgb": [
          243,
          152,
          157
        ],
        "area_px": 2512,
        "centroid_lat": 31.646687,
        "centroid_lon": -7.998076
      },
      "geometry": {
        "type": "Polygon",
        "coordinates": [
          [
            [
              -7.999445,
              31.648316
            ],
            [
              -7.999635,
              31.647895
            ],
            [
              -7.999502,
              31.645593
            ],
            [
              -7.999408,
              31.645542
            ],
            [
              -7.999503,
              31.645331
            ],
            [
              -7.99941,
              31.645018
            ],
            [
              -7.999257,
              31.641853
            ],
            [
              -7.998975,
              31.641961
            ],
            [
              -7.998785,
              31.642381
            ],
            [
              -7.995542,
              31.647888
            ],
            [
              -7.99521,
              31.648624
            ],
            [
              -7.995774,
              31.64867
            ],
            [
              -7.996127,
              31.648536
            ],
            [
              -7.996293,
              31.648298
            ],
            [
              -7.997376,
              31.647972
            ],
            [
              -7.997635,
              31.648048
            ],
            [
              -7.997917,
              31.64794
            ],
            [
              -7.998196,
              31.648879
            ],
            [
              -7.999445,
              31.648316
            ]
          ]
        ]
      }
    },
    {
      "type": "Feature",
      "properties": {
        "name": "Amerchich",
        "id": 8,
        "color_rgb": [
          179,
          70,
          3
        ],
        "area_px": 4512,
        "centroid_lat": 31.64925,
        "centroid_lon": -7.986979
      },
      "geometry": {
        "type": "Polygon",
        "coordinates": [
          [
            [
              -7.985686,
              31.653912
            ],
            [
              -7.986724,
              31.653167
            ],
            [
              -7.987174,
              31.652299
            ],
            [
              -7.987199,
              31.651853
            ],
            [
              -7.986847,
              31.651726
            ],
            [
              -7.985599,
              31.652028
            ],
            [
              -7.985955,
              31.651108
            ],
            [
              -7.986545,
              31.650447
            ],
            [
              -7.986735,
              31.650026
            ],
            [
              -7.987113,
              31.649708
            ],
            [
              -7.987303,
              31.649287
            ],
            [
              -7.98794,
              31.648783
            ],
            [
              -7.990822,
              31.645505
            ],
            [
              -7.991106,
              31.644874
            ],
            [
              -7.991452,
              31.640473
            ],
            [
              -7.991169,
              31.640581
            ],
            [
              -7.987393,
              31.643763
            ],
            [
              -7.987156,
              31.644289
            ],
            [
              -7.987226,
              31.644524
            ],
            [
              -7.986989,
              31.64505
            ],
            [
              -7.986605,
              31.646939
            ],
            [
              -7.987546,
              31.646929
            ],
            [
              -7.987589,
              31.648132
            ],
            [
              -7.98721,
              31.648974
            ],
            [
              -7.985698,
              31.650509
            ],
            [
              -7.985509,
              31.65093
            ],
            [
              -7.98553,
              31.651531
            ],
            [
              -7.985056,
              31.652584
            ],
            [
              -7.984205,
              31.653692
            ],
            [
              -7.984015,
              31.654113
            ],
            [
              -7.984555,
              31.654343
            ],
            [
              -7.985686,
              31.653912
            ]
          ]
        ]
      }
    },
    {
      "type": "Feature",
      "properties": {
        "name": "Camp El Ghoul / Bayard / Hay Itoun",
        "id": 5,
        "color_rgb": [
          173,
          2,
          215
        ],
        "area_px": 4971,
        "centroid_lat": 31.626349,
        "centroid_lon": -8.004427
      },
      "geometry": {
        "type": "Polygon",
        "coordinates": [
          [
            [
              -8.006032,
              31.629162
            ],
            [
              -8.007384,
              31.626294
            ],
            [
              -8.007795,
              31.623175
            ],
            [
              -8.00763,
              31.62315
            ],
            [
              -8.00782,
              31.622729
            ],
            [
              -8.007894,
              31.621917
            ],
            [
              -8.007259,
              31.621636
            ],
            [
              -8.005823,
              31.622097
            ],
            [
              -8.003744,
              31.624371
            ],
            [
              -8.003531,
              31.624714
            ],
            [
              -8.002188,
              31.625226
            ],
            [
              -8.001357,
              31.62746
            ],
            [
              -8.001403,
              31.627616
            ],
            [
              -8.001261,
              31.627932
            ],
            [
              -8.001517,
              31.628531
            ],
            [
              -8.001469,
              31.628898
            ],
            [
              -8.002221,
              31.629047
            ],
            [
              -8.002504,
              31.628939
            ],
            [
              -8.003189,
              31.62833
            ],
            [
              -8.003895,
              31.62806
            ],
            [
              -8.004694,
              31.628365
            ],
            [
              -8.005185,
              31.629224
            ],
            [
              -8.006032,
              31.629162
            ]
          ]
        ]
      }
    },
    {
      "type": "Feature",
      "properties": {
        "name": "Daoudiate",
        "id": 19,
        "color_rgb": [
          166,
          125,
          55
        ],
        "area_px": 7271,
        "centroid_lat": 31.636864,
        "centroid_lon": -7.992133
      },
      "geometry": {
        "type": "Polygon",
        "coordinates": [
          [
            [
              -7.986286,
              31.644273
            ],
            [
              -7.987511,
              31.643631
            ],
            [
              -7.991098,
              31.640608
            ],
            [
              -7.991406,
              31.640055
            ],
            [
              -7.99183,
              31.639893
            ],
            [
              -7.992566,
              31.638131
            ],
            [
              -7.992048,
              31.638241
            ],
            [
              -7.992523,
              31.636928
            ],
            [
              -7.992924,
              31.636688
            ],
            [
              -7.993542,
              31.635058
            ],
            [
              -7.995873,
              31.63443
            ],
            [
              -7.995328,
              31.635509
            ],
            [
              -7.994339,
              31.635887
            ],
            [
              -7.993722,
              31.637255
            ],
            [
              -7.993321,
              31.637495
            ],
            [
              -7.993132,
              31.637915
            ],
            [
              -7.994098,
              31.63746
            ],
            [
              -7.994785,
              31.636065
            ],
            [
              -7.995633,
              31.635742
            ],
            [
              -7.995774,
              31.635949
            ],
            [
              -7.995416,
              31.637131
            ],
            [
              -7.996052,
              31.636889
            ],
            [
              -7.996906,
              31.634995
            ],
            [
              -7.996483,
              31.634895
            ],
            [
              -7.996768,
              31.634263
            ],
            [
              -7.996535,
              31.633481
            ],
            [
              -7.995146,
              31.633836
            ],
            [
              -7.995692,
              31.632495
            ],
            [
              -7.995268,
              31.632657
            ],
            [
              -7.994463,
              31.634184
            ],
            [
              -7.993073,
              31.63454
            ],
            [
              -7.99407,
              31.63233
            ],
            [
              -7.994824,
              31.631955
            ],
            [
              -7.995013,
              31.631534
            ],
            [
              -7.994637,
              31.631591
            ],
            [
              -7.995799,
              31.629144
            ],
            [
              -7.995327,
              31.629411
            ],
            [
              -7.991946,
              31.633924
            ],
            [
              -7.989683,
              31.63531
            ],
            [
              -7.989304,
              31.63589
            ],
            [
              -7.987725,
              31.636666
            ],
            [
              -7.987441,
              31.637298
            ],
            [
              -7.988548,
              31.636788
            ],
            [
              -7.98805,
              31.638024
            ],
            [
              -7.988615,
              31.637808
            ],
            [
              -7.98859,
              31.638253
            ],
            [
              -7.987354,
              31.641774
            ],
            [
              -7.985681,
              31.6425
            ],
            [
              -7.985443,
              31.643026
            ],
            [
              -7.986551,
              31.642516
            ],
            [
              -7.9861,
              31.643647
            ],
            [
              -7.986547,
              31.643563
            ],
            [
              -7.986286,
              31.644273
            ]
          ]
        ]
      }
    },
    {
      "type": "Feature",
      "properties": {
        "name": "Dar Younes",
        "id": 23,
        "color_rgb": [
          203,
          184,
          105
        ],
        "area_px": 2842,
        "centroid_lat": 31.63945,
        "centroid_lon": -7.987249
      },
      "geometry": {
        "type": "Polygon",
        "coordinates": [
          [
            [
              -7.98704,
              31.643898
            ],
            [
              -7.987277,
              31.643372
            ],
            [
              -7.987374,
              31.642638
            ],
            [
              -7.987257,
              31.642508
            ],
            [
              -7.987447,
              31.642087
            ],
            [
              -7.987543,
              31.641354
            ],
            [
              -7.987449,
              31.641302
            ],
            [
              -7.98802,
              31.639778
            ],
            [
              -7.989116,
              31.636049
            ],
            [
              -7.988621,
              31.636238
            ],
            [
              -7.98874,
              31.635844
            ],
            [
              -7.988081,
              31.636008
            ],
            [
              -7.988769,
              31.634351
            ],
            [
              -7.988677,
              31.633777
            ],
            [
              -7.986768,
              31.634766
            ],
            [
              -7.98646,
              31.635319
            ],
            [
              -7.986242,
              31.636971
            ],
            [
              -7.985862,
              31.638074
            ],
            [
              -7.986096,
              31.638333
            ],
            [
              -7.986778,
              31.638247
            ],
            [
              -7.987297,
              31.637875
            ],
            [
              -7.987912,
              31.637031
            ],
            [
              -7.988571,
              31.636866
            ],
            [
              -7.987907,
              31.638339
            ],
            [
              -7.986676,
              31.640552
            ],
            [
              -7.984946,
              31.644
            ],
            [
              -7.98513,
              31.645149
            ],
            [
              -7.985743,
              31.644828
            ],
            [
              -7.986616,
              31.64406
            ],
            [
              -7.98704,
              31.643898
            ]
          ]
        ]
      }
    },
    {
      "type": "Feature",
      "properties": {
        "name": "Douar El Askar / Azli",
        "id": 6,
        "color_rgb": [
          173,
          2,
          215
        ],
        "area_px": 3198,
        "centroid_lat": 31.618296,
        "centroid_lon": -8.008034
      },
      "geometry": {
        "type": "Polygon",
        "coordinates": [
          [
            [
              -8.003212,
              31.622047
            ],
            [
              -8.003187,
              31.622231
            ],
            [
              -8.003682,
              31.622042
            ],
            [
              -8.007078,
              31.619701
            ],
            [
              -8.009881,
              31.618807
            ],
            [
              -8.012049,
              31.617893
            ],
            [
              -8.012759,
              31.616576
            ],
            [
              -8.0117,
              31.616719
            ],
            [
              -8.012483,
              31.615114
            ],
            [
              -8.0122,
              31.615221
            ],
            [
              -8.010265,
              31.616656
            ],
            [
              -8.0097,
              31.616872
            ],
            [
              -8.009942,
              31.615037
            ],
            [
              -8.009565,
              31.615093
            ],
            [
              -8.006947,
              31.617138
            ],
            [
              -8.006591,
              31.617796
            ],
            [
              -8.006519,
              31.618346
            ],
            [
              -8.006139,
              31.619188
            ],
            [
              -8.003567,
              31.621389
            ],
            [
              -8.003212,
              31.622047
            ]
          ]
        ]
      }
    },
    {
      "type": "Feature",
      "properties": {
        "name": "Douar El Koudia",
        "id": 40,
        "color_rgb": [
          163,
          121,
          176
        ],
        "area_px": 2724,
        "centroid_lat": 31.63577,
        "centroid_lon": -8.001221
      },
      "geometry": {
        "type": "Polygon",
        "coordinates": [
          [
            [
              -7.999547,
              31.639913
            ],
            [
              -7.999829,
              31.639805
            ],
            [
              -8.000255,
              31.63912
            ],
            [
              -8.000445,
              31.638699
            ],
            [
              -8.00177,
              31.636538
            ],
            [
              -8.00196,
              31.636117
            ],
            [
              -8.002291,
              31.635642
            ],
            [
              -8.002694,
              31.634879
            ],
            [
              -8.003025,
              31.634404
            ],
            [
              -8.003215,
              31.633983
            ],
            [
              -8.00454,
              31.631822
            ],
            [
              -8.005085,
              31.630743
            ],
            [
              -8.004803,
              31.630851
            ],
            [
              -8.002771,
              31.633019
            ],
            [
              -8.001591,
              31.634079
            ],
            [
              -8.001072,
              31.634452
            ],
            [
              -7.999729,
              31.634964
            ],
            [
              -7.99935,
              31.635805
            ],
            [
              -7.999019,
              31.63628
            ],
            [
              -7.998829,
              31.636701
            ],
            [
              -7.998545,
              31.637071
            ],
            [
              -7.998166,
              31.637912
            ],
            [
              -7.999547,
              31.639913
            ]
          ]
        ]
      }
    },
    {
      "type": "Feature",
      "properties": {
        "name": "Douar Iziki / Socoma",
        "id": 31,
        "color_rgb": [
          227,
          75,
          42
        ],
        "area_px": 8387,
        "centroid_lat": 31.611303,
        "centroid_lon": -8.019526
      },
      "geometry": {
        "type": "Polygon",
        "coordinates": [
          [
            [
              -8.020953,
              31.614759
            ],
            [
              -8.024418,
              31.606554
            ],
            [
              -8.024135,
              31.606662
            ],
            [
              -8.023308,
              31.607587
            ],
            [
              -8.019775,
              31.608935
            ],
            [
              -8.019496,
              31.607995
            ],
            [
              -8.016951,
              31.608966
            ],
            [
              -8.013326,
              31.616099
            ],
            [
              -8.015775,
              31.615339
            ],
            [
              -8.0157,
              31.616675
            ],
            [
              -8.020953,
              31.614759
            ]
          ]
        ]
      }
    },
    {
      "type": "Feature",
      "properties": {
        "name": "El Afaq",
        "id": 46,
        "color_rgb": [
          240,
          107,
          78
        ],
        "area_px": 2739,
        "centroid_lat": 31.617294,
        "centroid_lon": -8.030132
      },
      "geometry": {
        "type": "Polygon",
        "coordinates": [
          [
            [
              -8.031729,
              31.620843
            ],
            [
              -8.032888,
              31.619182
            ],
            [
              -8.033172,
              31.61855
            ],
            [
              -8.032821,
              31.618162
            ],
            [
              -8.032186,
              31.618142
            ],
            [
              -8.03146,
              31.617287
            ],
            [
              -8.031248,
              31.617368
            ],
            [
              -8.031249,
              31.617106
            ],
            [
              -8.030686,
              31.616536
            ],
            [
              -8.030384,
              31.615519
            ],
            [
              -8.028617,
              31.616192
            ],
            [
              -8.027584,
              31.615628
            ],
            [
              -8.027562,
              31.615288
            ],
            [
              -8.028346,
              31.613159
            ],
            [
              -8.027992,
              31.613294
            ],
            [
              -8.02638,
              31.616871
            ],
            [
              -8.028284,
              31.617191
            ],
            [
              -8.029132,
              31.616867
            ],
            [
              -8.029202,
              31.617102
            ],
            [
              -8.028986,
              31.61823
            ],
            [
              -8.031257,
              31.62111
            ],
            [
              -8.031729,
              31.620843
            ]
          ]
        ]
      }
    },
    {
      "type": "Feature",
      "properties": {
        "name": "El Azzouzia",
        "id": 32,
        "color_rgb": [
          243,
          152,
          157
        ],
        "area_px": 4966,
        "centroid_lat": 31.649626,
        "centroid_lon": -8.003586
      },
      "geometry": {
        "type": "Polygon",
        "coordinates": [
          [
            [
              -8.007844,
              31.64825
            ],
            [
              -8.008366,
              31.647092
            ],
            [
              -8.008486,
              31.646436
            ],
            [
              -8.002317,
              31.647918
            ],
            [
              -8.001754,
              31.647348
            ],
            [
              -8.00133,
              31.64751
            ],
            [
              -8.000316,
              31.648332
            ],
            [
              -8.000031,
              31.648964
            ],
            [
              -7.999453,
              31.652582
            ],
            [
              -7.999736,
              31.652474
            ],
            [
              -8.000987,
              31.651388
            ],
            [
              -8.001623,
              31.651145
            ],
            [
              -8.001832,
              31.651849
            ],
            [
              -8.002372,
              31.652079
            ],
            [
              -8.004798,
              31.651241
            ],
            [
              -8.005459,
              31.650815
            ],
            [
              -8.006403,
              31.650019
            ],
            [
              -8.007182,
              31.649199
            ],
            [
              -8.007844,
              31.64825
            ]
          ]
        ]
      }
    },
    {
      "type": "Feature",
      "properties": {
        "name": "El Fadl / Charaf / Sanaoubar",
        "id": 22,
        "color_rgb": [
          203,
          184,
          105
        ],
        "area_px": 6755,
        "centroid_lat": 31.644469,
        "centroid_lon": -7.993932
      },
      "geometry": {
        "type": "Polygon",
        "coordinates": [
          [
            [
              -7.989033,
              31.6522
            ],
            [
              -7.991767,
              31.650808
            ],
            [
              -7.993628,
              31.650186
            ],
            [
              -7.99867,
              31.641728
            ],
            [
              -7.998954,
              31.641097
            ],
            [
              -7.998138,
              31.639143
            ],
            [
              -7.997693,
              31.638703
            ],
            [
              -7.997274,
              31.637294
            ],
            [
              -7.996992,
              31.637402
            ],
            [
              -7.996779,
              31.637744
            ],
            [
              -7.995993,
              31.640135
            ],
            [
              -7.996841,
              31.640073
            ],
            [
              -7.997027,
              31.640438
            ],
            [
              -7.997026,
              31.640961
            ],
            [
              -7.99622,
              31.642488
            ],
            [
              -7.994827,
              31.643891
            ],
            [
              -7.992441,
              31.646718
            ],
            [
              -7.991545,
              31.647146
            ],
            [
              -7.991005,
              31.646917
            ],
            [
              -7.990416,
              31.647054
            ],
            [
              -7.989069,
              31.648613
            ],
            [
              -7.988903,
              31.649112
            ],
            [
              -7.989726,
              31.649234
            ],
            [
              -7.989298,
              31.650443
            ],
            [
              -7.989033,
              31.6522
            ]
          ]
        ]
      }
    },
    {
      "type": "Feature",
      "properties": {
        "name": "Guéliz",
        "id": 14,
        "color_rgb": [
          45,
          59,
          154
        ],
        "area_px": 7184,
        "centroid_lat": 31.6285,
        "centroid_lon": -7.998538
      },
      "geometry": {
        "type": "Polygon",
        "coordinates": [
          [
            [
              -7.99768,
              31.635745
            ],
            [
              -7.997964,
              31.635376
            ],
            [
              -7.999006,
              31.633323
            ],
            [
              -8.000839,
              31.62757
            ],
            [
              -8.002691,
              31.622943
            ],
            [
              -8.002792,
              31.6209
            ],
            [
              -8.002723,
              31.620665
            ],
            [
              -8.00244,
              31.620773
            ],
            [
              -7.998686,
              31.624296
            ],
            [
              -7.997862,
              31.624698
            ],
            [
              -7.997104,
              31.626119
            ],
            [
              -7.996442,
              31.626807
            ],
            [
              -7.996087,
              31.627465
            ],
            [
              -7.996464,
              31.627409
            ],
            [
              -7.996155,
              31.628224
            ],
            [
              -7.996824,
              31.631802
            ],
            [
              -7.997012,
              31.631905
            ],
            [
              -7.996916,
              31.632377
            ],
            [
              -7.997397,
              31.635853
            ],
            [
              -7.99768,
              31.635745
            ]
          ]
        ]
      }
    },
    {
      "type": "Feature",
      "properties": {
        "name": "Issil",
        "id": 21,
        "color_rgb": [
          223,
          247,
          0
        ],
        "area_px": 6177,
        "centroid_lat": 31.636236,
        "centroid_lon": -7.994794
      },
      "geometry": {
        "type": "Polygon",
        "coordinates": [
          [
            [
              -7.991814,
              31.644343
            ],
            [
              -7.995432,
              31.639304
            ],
            [
              -7.995787,
              31.638645
            ],
            [
              -7.996733,
              31.637326
            ],
            [
              -7.997113,
              31.636484
            ],
            [
              -7.996742,
              31.63497
            ],
            [
              -7.996837,
              31.63476
            ],
            [
              -7.996697,
              31.63429
            ],
            [
              -7.996462,
              31.634293
            ],
            [
              -7.996604,
              31.633977
            ],
            [
              -7.99644,
              31.633953
            ],
            [
              -7.996583,
              31.633375
            ],
            [
              -7.996425,
              31.631519
            ],
            [
              -7.99612,
              31.631287
            ],
            [
              -7.996193,
              31.630736
            ],
            [
              -7.995844,
              31.629562
            ],
            [
              -7.995561,
              31.62967
            ],
            [
              -7.993237,
              31.634826
            ],
            [
              -7.993189,
              31.635193
            ],
            [
              -7.992809,
              31.636034
            ],
            [
              -7.992903,
              31.636086
            ],
            [
              -7.992215,
              31.637742
            ],
            [
              -7.992037,
              31.641383
            ],
            [
              -7.991511,
              31.643587
            ],
            [
              -7.991531,
              31.644451
            ],
            [
              -7.991814,
              31.644343
            ]
          ]
        ]
      }
    },
    {
      "type": "Feature",
      "properties": {
        "name": "Jardins de l'Agdal (en développement)",
        "id": 4,
        "color_rgb": [
          25,
          76,
          23
        ],
        "area_px": 9491,
        "centroid_lat": 31.612838,
        "centroid_lon": -7.996705
      },
      "geometry": {
        "type": "Polygon",
        "coordinates": [
          [
            [
              -7.993721,
              31.618435
            ],
            [
              -7.994592,
              31.61819
            ],
            [
              -7.995418,
              31.617526
            ],
            [
              -7.996691,
              31.616779
            ],
            [
              -7.997046,
              31.616121
            ],
            [
              -7.9974,
              31.615725
            ],
            [
              -7.998698,
              31.614794
            ],
            [
              -8.000858,
              31.609614
            ],
            [
              -8.003075,
              31.601449
            ],
            [
              -7.998101,
              31.604305
            ],
            [
              -7.997579,
              31.605462
            ],
            [
              -7.996292,
              31.610135
            ],
            [
              -7.996267,
              31.610581
            ],
            [
              -7.995768,
              31.611816
            ],
            [
              -7.995908,
              31.612024
            ],
            [
              -7.994865,
              31.614339
            ],
            [
              -7.994696,
              31.615362
            ],
            [
              -7.993721,
              31.618435
            ]
          ]
        ]
      }
    },
    {
      "type": "Feature",
      "properties": {
        "name": "L'Hivernage",
        "id": 28,
        "color_rgb": [
          69,
          14,
          93
        ],
        "area_px": 4177,
        "centroid_lat": 31.620818,
        "centroid_lon": -8.001645
      },
      "geometry": {
        "type": "Polygon",
        "coordinates": [
          [
            [
              -7.998119,
              31.625035
            ],
            [
              -7.998543,
              31.624873
            ],
            [
              -7.998923,
              31.624031
            ],
            [
              -7.999466,
              31.623476
            ],
            [
              -8.000102,
              31.623233
            ],
            [
              -8.00003,
              31.623522
            ],
            [
              -8.00109,
              31.623118
            ],
            [
              -8.001066,
              31.623301
            ],
            [
              -8.00142,
              31.623166
            ],
            [
              -8.001704,
              31.622535
            ],
            [
              -8.000691,
              31.622834
            ],
            [
              -8.001189,
              31.62186
            ],
            [
              -8.002629,
              31.620614
            ],
            [
              -8.002937,
              31.620061
            ],
            [
              -8.00591,
              31.61762
            ],
            [
              -8.006829,
              31.61727
            ],
            [
              -8.007018,
              31.616849
            ],
            [
              -8.006831,
              31.616485
            ],
            [
              -8.006651,
              31.614288
            ],
            [
              -8.006369,
              31.614396
            ],
            [
              -8.003348,
              31.616942
            ],
            [
              -8.003064,
              31.617311
            ],
            [
              -8.002782,
              31.617419
            ],
            [
              -7.999383,
              31.620283
            ],
            [
              -7.999194,
              31.620704
            ],
            [
              -7.999311,
              31.620834
            ],
            [
              -7.998884,
              31.621781
            ],
            [
              -7.999072,
              31.621883
            ],
            [
              -7.998688,
              31.623772
            ],
            [
              -7.998119,
              31.625035
            ]
          ]
        ]
      }
    },
    {
      "type": "Feature",
      "properties": {
        "name": "M'hamid",
        "id": 0,
        "color_rgb": [
          253,
          0,
          0
        ],
        "area_px": 17800,
        "centroid_lat": 31.597299,
        "centroid_lon": -8.021372
      },
      "geometry": {
        "type": "Polygon",
        "coordinates": [
          [
            [
              -8.03148,
              31.586086
            ],
            [
              -8.031248,
              31.585303
            ],
            [
              -8.029881,
              31.585999
            ],
            [
              -8.028746,
              31.587477
            ],
            [
              -8.026968,
              31.591292
            ],
            [
              -8.017835,
              31.598957
            ],
            [
              -8.016961,
              31.599988
            ],
            [
              -8.016325,
              31.60023
            ],
            [
              -8.015719,
              31.598719
            ],
            [
              -8.014022,
              31.599366
            ],
            [
              -8.012323,
              31.600798
            ],
            [
              -8.012015,
              31.601351
            ],
            [
              -8.012192,
              31.604595
            ],
            [
              -8.012734,
              31.604301
            ],
            [
              -8.014434,
              31.602607
            ],
            [
              -8.014999,
              31.602391
            ],
            [
              -8.014757,
              31.604226
            ],
            [
              -8.015059,
              31.605244
            ],
            [
              -8.019371,
              31.603599
            ],
            [
              -8.019861,
              31.60472
            ],
            [
              -8.021346,
              31.603892
            ],
            [
              -8.021986,
              31.602602
            ],
            [
              -8.022763,
              31.602306
            ],
            [
              -8.026446,
              31.59881
            ],
            [
              -8.028491,
              31.592715
            ],
            [
              -8.029203,
              31.591137
            ],
            [
              -8.030363,
              31.589213
            ],
            [
              -8.030768,
              31.587664
            ],
            [
              -8.03148,
              31.586086
            ]
          ]
        ]
      }
    },
    {
      "type": "Feature",
      "properties": {
        "name": "Massira",
        "id": 20,
        "color_rgb": [
          238,
          116,
          8
        ],
        "area_px": 17162,
        "centroid_lat": 31.622754,
        "centroid_lon": -8.014115
      },
      "geometry": {
        "type": "Polygon",
        "coordinates": [
          [
            [
              -8.019336,
              31.625744
            ],
            [
              -8.022657,
              31.618378
            ],
            [
              -8.023754,
              31.614388
            ],
            [
              -8.007924,
              31.620163
            ],
            [
              -8.007734,
              31.620584
            ],
            [
              -8.008482,
              31.62178
            ],
            [
              -8.008703,
              31.625704
            ],
            [
              -8.010729,
              31.625106
            ],
            [
              -8.011526,
              31.625673
            ],
            [
              -8.013364,
              31.624972
            ],
            [
              -8.015835,
              31.624814
            ],
            [
              -8.019336,
              31.625744
            ]
          ]
        ]
      }
    },
    {
      "type": "Feature",
      "properties": {
        "name": "Medina",
        "id": 7,
        "color_rgb": [
          135,
          200,
          247
        ],
        "area_px": 15720,
        "centroid_lat": 31.623752,
        "centroid_lon": -7.994386
      },
      "geometry": {
        "type": "Polygon",
        "coordinates": [
          [
            [
              -7.989568,
              31.634657
            ],
            [
              -7.991667,
              31.633246
            ],
            [
              -7.995403,
              31.628075
            ],
            [
              -7.996892,
              31.6262
            ],
            [
              -7.997909,
              31.624592
            ],
            [
              -7.998721,
              31.621233
            ],
            [
              -7.999196,
              31.620181
            ],
            [
              -7.99896,
              31.620183
            ],
            [
              -7.999624,
              31.61871
            ],
            [
              -7.999484,
              31.618502
            ],
            [
              -7.999769,
              31.617871
            ],
            [
              -7.999865,
              31.617137
            ],
            [
              -7.9993,
              31.617353
            ],
            [
              -7.999207,
              31.61704
            ],
            [
              -7.997934,
              31.617787
            ],
            [
              -7.998694,
              31.615841
            ],
            [
              -7.997917,
              31.616138
            ],
            [
              -7.996405,
              31.617673
            ],
            [
              -7.993386,
              31.619957
            ],
            [
              -7.99074,
              31.62297
            ],
            [
              -7.990457,
              31.623078
            ],
            [
              -7.989983,
              31.62413
            ],
            [
              -7.990263,
              31.624546
            ],
            [
              -7.989884,
              31.625387
            ],
            [
              -7.989033,
              31.626496
            ],
            [
              -7.988772,
              31.627206
            ],
            [
              -7.988929,
              31.629062
            ],
            [
              -7.989491,
              31.629894
            ],
            [
              -7.989247,
              31.632252
            ],
            [
              -7.989687,
              31.634263
            ],
            [
              -7.989568,
              31.634657
            ]
          ]
        ]
      }
    },
    {
      "type": "Feature",
      "properties": {
        "name": "Menara / Jbabat Chatbi",
        "id": 3,
        "color_rgb": [
          25,
          76,
          23
        ],
        "area_px": 5800,
        "centroid_lat": 31.614593,
        "centroid_lon": -8.005493
      },
      "geometry": {
        "type": "Polygon",
        "coordinates": [
          [
            [
              -8.00022,
              31.616741
            ],
            [
              -7.99984,
              31.617582
            ],
            [
              -7.999502,
              31.619889
            ],
            [
              -7.999856,
              31.619755
            ],
            [
              -8.002806,
              31.617236
            ],
            [
              -8.003089,
              31.616866
            ],
            [
              -8.003372,
              31.616758
            ],
            [
              -8.005119,
              31.615221
            ],
            [
              -8.006815,
              31.614574
            ],
            [
              -8.006972,
              31.616692
            ],
            [
              -8.007655,
              31.616345
            ],
            [
              -8.00808,
              31.615921
            ],
            [
              -8.008434,
              31.615786
            ],
            [
              -8.008859,
              31.615363
            ],
            [
              -8.009778,
              31.614751
            ],
            [
              -8.01004,
              31.614041
            ],
            [
              -8.009955,
              31.611634
            ],
            [
              -8.009791,
              31.611348
            ],
            [
              -8.009864,
              31.610536
            ],
            [
              -8.009299,
              31.610751
            ],
            [
              -8.008473,
              31.611415
            ],
            [
              -8.006777,
              31.612062
            ],
            [
              -8.006972,
              31.610332
            ],
            [
              -8.006618,
              31.610467
            ],
            [
              -8.005178,
              31.611975
            ],
            [
              -8.004352,
              31.612638
            ],
            [
              -8.003123,
              31.614065
            ],
            [
              -8.002345,
              31.614623
            ],
            [
              -8.0014,
              31.615681
            ],
            [
              -8.00022,
              31.616741
            ]
          ]
        ]
      }
    },
    {
      "type": "Feature",
      "properties": {
        "name": "Sidi Youssef Ben Ali",
        "id": 2,
        "color_rgb": [
          0,
          172,
          236
        ],
        "area_px": 7964,
        "centroid_lat": 31.616542,
        "centroid_lon": -7.991462
      },
      "geometry": {
        "type": "Polygon",
        "coordinates": [
          [
            [
              -7.989936,
              31.623973
            ],
            [
              -7.990599,
              31.622762
            ],
            [
              -7.993365,
              31.619093
            ],
            [
              -7.993745,
              31.618252
            ],
            [
              -7.995414,
              31.612213
            ],
            [
              -7.995037,
              31.612269
            ],
            [
              -7.994141,
              31.61296
            ],
            [
              -7.993434,
              31.613229
            ],
            [
              -7.994743,
              31.609158
            ],
            [
              -7.994389,
              31.609293
            ],
            [
              -7.992007,
              31.611073
            ],
            [
              -7.991817,
              31.611493
            ],
            [
              -7.99167,
              31.613118
            ],
            [
              -7.991172,
              31.614092
            ],
            [
              -7.989827,
              31.615127
            ],
            [
              -7.989638,
              31.615548
            ],
            [
              -7.989682,
              31.616228
            ],
            [
              -7.988307,
              31.61928
            ],
            [
              -7.988115,
              31.620224
            ],
            [
              -7.988159,
              31.620904
            ],
            [
              -7.989166,
              31.622176
            ],
            [
              -7.989324,
              31.624032
            ],
            [
              -7.989936,
              31.623973
            ]
          ]
        ]
      }
    },
    {
      "type": "Feature",
      "properties": {
        "name": "Targa",
        "id": 1,
        "color_rgb": [
          250,
          174,
          92
        ],
        "area_px": 24028,
        "centroid_lat": 31.634986,
        "centroid_lon": -8.009842
      },
      "geometry": {
        "type": "Polygon",
        "coordinates": [
          [
            [
              -8.00937,
              31.642788
            ],
            [
              -8.01093,
              31.640625
            ],
            [
              -8.011951,
              31.638232
            ],
            [
              -8.011883,
              31.637473
            ],
            [
              -8.010706,
              31.637748
            ],
            [
              -8.01045,
              31.636887
            ],
            [
              -8.011261,
              31.63379
            ],
            [
              -8.012542,
              31.630949
            ],
            [
              -8.013062,
              31.630315
            ],
            [
              -8.014122,
              31.629911
            ],
            [
              -8.017343,
              31.630425
            ],
            [
              -8.01829,
              31.628844
            ],
            [
              -8.019099,
              31.62627
            ],
            [
              -8.015974,
              31.625283
            ],
            [
              -8.013151,
              31.625314
            ],
            [
              -8.011313,
              31.626015
            ],
            [
              -8.010397,
              31.62558
            ],
            [
              -8.008513,
              31.626125
            ],
            [
              -8.003449,
              31.634242
            ],
            [
              -8.00288,
              31.635505
            ],
            [
              -8.002566,
              31.637628
            ],
            [
              -8.003317,
              31.638301
            ],
            [
              -8.005554,
              31.637622
            ],
            [
              -8.005645,
              31.638458
            ],
            [
              -8.004286,
              31.64342
            ],
            [
              -8.004846,
              31.644775
            ],
            [
              -8.005833,
              31.644921
            ],
            [
              -8.007317,
              31.644355
            ],
            [
              -8.00937,
              31.642788
            ]
          ]
        ]
      }
    },
    {
      "type": "Feature",
      "properties": {
        "name": "Zohour",
        "id": 47,
        "color_rgb": [
          255,
          165,
          80
        ],
        "area_px": 1400,
        "centroid_lat": 31.654,
        "centroid_lon": -8.028
      },
      "geometry": {
        "type": "Polygon",
        "coordinates": [
          [
            [
              -8.028,
              31.6575
            ],
            [
              -8.025649,
              31.656832
            ],
            [
              -8.024196,
              31.655082
            ],
            [
              -8.024196,
              31.652918
            ],
            [
              -8.025649,
              31.651168
            ],
            [
              -8.028,
              31.6505
            ],
            [
              -8.030351,
              31.651168
            ],
            [
              -8.031804,
              31.652918
            ],
            [
              -8.031804,
              31.655082
            ],
            [
              -8.030351,
              31.656832
            ],
            [
              -8.028,
              31.6575
            ]
          ]
        ]
      }
    },
    {
      "type": "Feature",
      "properties": {
        "name": "Sidi Ghanem",
        "id": 48,
        "color_rgb": [
          180,
          180,
          180
        ],
        "area_px": 1200,
        "centroid_lat": 31.65,
        "centroid_lon": -8.008
      },
      "geometry": {
        "type": "Polygon",
        "coordinates": [
          [
            [
              -8.008,
              31.653
            ],
            [
              -8.005649,
              31.652427
            ],
            [
              -8.004196,
              31.650927
            ],
            [
              -8.004196,
              31.649073
            ],
            [
              -8.005649,
              31.647573
            ],
            [
              -8.008,
              31.647
            ],
            [
              -8.010351,
              31.647573
            ],
            [
              -8.011804,
              31.649073
            ],
            [
              -8.011804,
              31.650927
            ],
            [
              -8.010351,
              31.652427
            ],
            [
              -8.008,
              31.653
            ]
          ]
        ]
      }
    },
    {
      "type": "Feature",
      "properties": {
        "name": "Jawhar",
        "id": 49,
        "color_rgb": [
          255,
          200,
          80
        ],
        "area_px": 750,
        "centroid_lat": 31.643,
        "centroid_lon": -8.01
      },
      "geometry": {
        "type": "Polygon",
        "coordinates": [
          [
            [
              -8.01,
              31.6455
            ],
            [
              -8.008237,
              31.645023
            ],
            [
              -8.007147,
              31.643773
            ],
            [
              -8.007147,
              31.642227
            ],
            [
              -8.008237,
              31.640977
            ],
            [
              -8.01,
              31.6405
            ],
            [
              -8.011763,
              31.640977
            ],
            [
              -8.012853,
              31.642227
            ],
            [
              -8.012853,
              31.643773
            ],
            [
              -8.011763,
              31.645023
            ],
            [
              -8.01,
              31.6455
            ]
          ]
        ]
      }
    },
    {
      "type": "Feature",
      "properties": {
        "name": "Masmoudi",
        "id": 50,
        "color_rgb": [
          255,
          180,
          60
        ],
        "area_px": 500,
        "centroid_lat": 31.638,
        "centroid_lon": -8.018
      },
      "geometry": {
        "type": "Polygon",
        "coordinates": [
          [
            [
              -8.018,
              31.64
            ],
            [
              -8.016531,
              31.639618
            ],
            [
              -8.015622,
              31.638618
            ],
            [
              -8.015622,
              31.637382
            ],
            [
              -8.016531,
              31.636382
            ],
            [
              -8.018,
              31.636
            ],
            [
              -8.019469,
              31.636382
            ],
            [
              -8.020378,
              31.637382
            ],
            [
              -8.020378,
              31.638618
            ],
            [
              -8.019469,
              31.639618
            ],
            [
              -8.018,
              31.64
            ]
          ]
        ]
      }
    },
    {
      "type": "Feature",
      "properties": {
        "name": "Lalla Hiya",
        "id": 51,
        "color_rgb": [
          255,
          160,
          50
        ],
        "area_px": 396,
        "centroid_lat": 31.635,
        "centroid_lon": -8.013
      },
      "geometry": {
        "type": "Polygon",
        "coordinates": [
          [
            [
              -8.013,
              31.6368
            ],
            [
              -8.011707,
              31.636456
            ],
            [
              -8.010908,
              31.635556
            ],
            [
              -8.010908,
              31.634444
            ],
            [
              -8.011707,
              31.633544
            ],
            [
              -8.013,
              31.6332
            ],
            [
              -8.014293,
              31.633544
            ],
            [
              -8.015092,
              31.634444
            ],
            [
              -8.015092,
              31.635556
            ],
            [
              -8.014293,
              31.636456
            ],
            [
              -8.013,
              31.6368
            ]
          ]
        ]
      }
    },
    {
      "type": "Feature",
      "properties": {
        "name": "Inara",
        "id": 52,
        "color_rgb": [
          255,
          145,
          45
        ],
        "area_px": 360,
        "centroid_lat": 31.631,
        "centroid_lon": -8.018
      },
      "geometry": {
        "type": "Polygon",
        "coordinates": [
          [
            [
              -8.018,
              31.6328
            ],
            [
              -8.016824,
              31.632456
            ],
            [
              -8.016098,
              31.631556
            ],
            [
              -8.016098,
              31.630444
            ],
            [
              -8.016824,
              31.629544
            ],
            [
              -8.018,
              31.6292
            ],
            [
              -8.019176,
              31.629544
            ],
            [
              -8.019902,
              31.630444
            ],
            [
              -8.019902,
              31.631556
            ],
            [
              -8.019176,
              31.632456
            ],
            [
              -8.018,
              31.6328
            ]
          ]
        ]
      }
    },
    {
      "type": "Feature",
      "properties": {
        "name": "Sofia",
        "id": 53,
        "color_rgb": [
          255,
          145,
          60
        ],
        "area_px": 360,
        "centroid_lat": 31.631,
        "centroid_lon": -8.013
      },
      "geometry": {
        "type": "Polygon",
        "coordinates": [
          [
            [
              -8.013,
              31.6328
            ],
            [
              -8.011824,
              31.632456
            ],
            [
              -8.011098,
              31.631556
            ],
            [
              -8.011098,
              31.630444
            ],
            [
              -8.011824,
              31.629544
            ],
            [
              -8.013,
              31.6292
            ],
            [
              -8.014176,
              31.629544
            ],
            [
              -8.014902,
              31.630444
            ],
            [
              -8.014902,
              31.631556
            ],
            [
              -8.014176,
              31.632456
            ],
            [
              -8.013,
              31.6328
            ]
          ]
        ]
      }
    },
    {
      "type": "Feature",
      "properties": {
        "name": "Massira I",
        "id": 54,
        "color_rgb": [
          220,
          100,
          20
        ],
        "area_px": 550,
        "centroid_lat": 31.619,
        "centroid_lon": -8.011
      },
      "geometry": {
        "type": "Polygon",
        "coordinates": [
          [
            [
              -8.011,
              31.6212
            ],
            [
              -8.009531,
              31.62078
            ],
            [
              -8.008622,
              31.61968
            ],
            [
              -8.008622,
              31.61832
            ],
            [
              -8.009531,
              31.61722
            ],
            [
              -8.011,
              31.6168
            ],
            [
              -8.012469,
              31.61722
            ],
            [
              -8.013378,
              31.61832
            ],
            [
              -8.013378,
              31.61968
            ],
            [
              -8.012469,
              31.62078
            ],
            [
              -8.011,
              31.6212
            ]
          ]
        ]
      }
    },
    {
      "type": "Feature",
      "properties": {
        "name": "Massira II",
        "id": 55,
        "color_rgb": [
          215,
          95,
          20
        ],
        "area_px": 616,
        "centroid_lat": 31.619,
        "centroid_lon": -8.018
      },
      "geometry": {
        "type": "Polygon",
        "coordinates": [
          [
            [
              -8.018,
              31.6212
            ],
            [
              -8.016354,
              31.62078
            ],
            [
              -8.015337,
              31.61968
            ],
            [
              -8.015337,
              31.61832
            ],
            [
              -8.016354,
              31.61722
            ],
            [
              -8.018,
              31.6168
            ],
            [
              -8.019646,
              31.61722
            ],
            [
              -8.020663,
              31.61832
            ],
            [
              -8.020663,
              31.61968
            ],
            [
              -8.019646,
              31.62078
            ],
            [
              -8.018,
              31.6212
            ]
          ]
        ]
      }
    },
    {
      "type": "Feature",
      "properties": {
        "name": "Massira III",
        "id": 56,
        "color_rgb": [
          210,
          90,
          20
        ],
        "area_px": 500,
        "centroid_lat": 31.624,
        "centroid_lon": -8.019
      },
      "geometry": {
        "type": "Polygon",
        "coordinates": [
          [
            [
              -8.019,
              31.626
            ],
            [
              -8.017531,
              31.625618
            ],
            [
              -8.016622,
              31.624618
            ],
            [
              -8.016622,
              31.623382
            ],
            [
              -8.017531,
              31.622382
            ],
            [
              -8.019,
              31.622
            ],
            [
              -8.020469,
              31.622382
            ],
            [
              -8.021378,
              31.623382
            ],
            [
              -8.021378,
              31.624618
            ],
            [
              -8.020469,
              31.625618
            ],
            [
              -8.019,
              31.626
            ]
          ]
        ]
      }
    },
    {
      "type": "Feature",
      "properties": {
        "name": "Abwab",
        "id": 57,
        "color_rgb": [
          200,
          85,
          20
        ],
        "area_px": 750,
        "centroid_lat": 31.619,
        "centroid_lon": -8.028
      },
      "geometry": {
        "type": "Polygon",
        "coordinates": [
          [
            [
              -8.028,
              31.6215
            ],
            [
              -8.026237,
              31.621023
            ],
            [
              -8.025147,
              31.619773
            ],
            [
              -8.025147,
              31.618227
            ],
            [
              -8.026237,
              31.616977
            ],
            [
              -8.028,
              31.6165
            ],
            [
              -8.029763,
              31.616977
            ],
            [
              -8.030853,
              31.618227
            ],
            [
              -8.030853,
              31.619773
            ],
            [
              -8.029763,
              31.621023
            ],
            [
              -8.028,
              31.6215
            ]
          ]
        ]
      }
    },
    {
      "type": "Feature",
      "properties": {
        "name": "Hay Zitoun",
        "id": 58,
        "color_rgb": [
          155,
          50,
          215
        ],
        "area_px": 625,
        "centroid_lat": 31.625,
        "centroid_lon": -7.999
      },
      "geometry": {
        "type": "Polygon",
        "coordinates": [
          [
            [
              -7.999,
              31.6275
            ],
            [
              -7.997531,
              31.627023
            ],
            [
              -7.996622,
              31.625773
            ],
            [
              -7.996622,
              31.624227
            ],
            [
              -7.997531,
              31.622977
            ],
            [
              -7.999,
              31.6225
            ],
            [
              -8.000469,
              31.622977
            ],
            [
              -8.001378,
              31.624227
            ],
            [
              -8.001378,
              31.625773
            ],
            [
              -8.000469,
              31.627023
            ],
            [
              -7.999,
              31.6275
            ]
          ]
        ]
      }
    },
    {
      "type": "Feature",
      "properties": {
        "name": "Riad Essalam",
        "id": 59,
        "color_rgb": [
          180,
          90,
          30
        ],
        "area_px": 750,
        "centroid_lat": 31.659,
        "centroid_lon": -7.992
      },
      "geometry": {
        "type": "Polygon",
        "coordinates": [
          [
            [
              -7.992,
              31.6615
            ],
            [
              -7.990237,
              31.661023
            ],
            [
              -7.989147,
              31.659773
            ],
            [
              -7.989147,
              31.658227
            ],
            [
              -7.990237,
              31.656977
            ],
            [
              -7.992,
              31.6565
            ],
            [
              -7.993763,
              31.656977
            ],
            [
              -7.994853,
              31.658227
            ],
            [
              -7.994853,
              31.659773
            ],
            [
              -7.993763,
              31.661023
            ],
            [
              -7.992,
              31.6615
            ]
          ]
        ]
      }
    },
    {
      "type": "Feature",
      "properties": {
        "name": "Hay El Firdaous",
        "id": 60,
        "color_rgb": [
          175,
          80,
          25
        ],
        "area_px": 560,
        "centroid_lat": 31.653,
        "centroid_lon": -7.993
      },
      "geometry": {
        "type": "Polygon",
        "coordinates": [
          [
            [
              -7.993,
              31.655
            ],
            [
              -7.991354,
              31.654618
            ],
            [
              -7.990337,
              31.653618
            ],
            [
              -7.990337,
              31.652382
            ],
            [
              -7.991354,
              31.651382
            ],
            [
              -7.993,
              31.651
            ],
            [
              -7.994646,
              31.651382
            ],
            [
              -7.995663,
              31.652382
            ],
            [
              -7.995663,
              31.653618
            ],
            [
              -7.994646,
              31.654618
            ],
            [
              -7.993,
              31.655
            ]
          ]
        ]
      }
    },
    {
      "type": "Feature",
      "properties": {
        "name": "Izdihar",
        "id": 61,
        "color_rgb": [
          160,
          220,
          80
        ],
        "area_px": 550,
        "centroid_lat": 31.641,
        "centroid_lon": -8
      },
      "geometry": {
        "type": "Polygon",
        "coordinates": [
          [
            [
              -8,
              31.6432
            ],
            [
              -7.998531,
              31.64278
            ],
            [
              -7.997622,
              31.64168
            ],
            [
              -7.997622,
              31.64032
            ],
            [
              -7.998531,
              31.63922
            ],
            [
              -8,
              31.6388
            ],
            [
              -8.001469,
              31.63922
            ],
            [
              -8.002378,
              31.64032
            ],
            [
              -8.002378,
              31.64168
            ],
            [
              -8.001469,
              31.64278
            ],
            [
              -8,
              31.6432
            ]
          ]
        ]
      }
    },
    {
      "type": "Feature",
      "properties": {
        "name": "Jnan Awrad",
        "id": 62,
        "color_rgb": [
          150,
          210,
          75
        ],
        "area_px": 440,
        "centroid_lat": 31.637,
        "centroid_lon": -8.001
      },
      "geometry": {
        "type": "Polygon",
        "coordinates": [
          [
            [
              -8.001,
              31.639
            ],
            [
              -7.999707,
              31.638618
            ],
            [
              -7.998908,
              31.637618
            ],
            [
              -7.998908,
              31.636382
            ],
            [
              -7.999707,
              31.635382
            ],
            [
              -8.001,
              31.635
            ],
            [
              -8.002293,
              31.635382
            ],
            [
              -8.003092,
              31.636382
            ],
            [
              -8.003092,
              31.637618
            ],
            [
              -8.002293,
              31.638618
            ],
            [
              -8.001,
              31.639
            ]
          ]
        ]
      }
    },
    {
      "type": "Feature",
      "properties": {
        "name": "Labrouka",
        "id": 63,
        "color_rgb": [
          140,
          200,
          70
        ],
        "area_px": 360,
        "centroid_lat": 31.633,
        "centroid_lon": -8.001
      },
      "geometry": {
        "type": "Polygon",
        "coordinates": [
          [
            [
              -8.001,
              31.6348
            ],
            [
              -7.999824,
              31.634456
            ],
            [
              -7.999098,
              31.633556
            ],
            [
              -7.999098,
              31.632444
            ],
            [
              -7.999824,
              31.631544
            ],
            [
              -8.001,
              31.6312
            ],
            [
              -8.002176,
              31.631544
            ],
            [
              -8.002902,
              31.632444
            ],
            [
              -8.002902,
              31.633556
            ],
            [
              -8.002176,
              31.634456
            ],
            [
              -8.001,
              31.6348
            ]
          ]
        ]
      }
    },
    {
      "type": "Feature",
      "properties": {
        "name": "Belbekkar",
        "id": 64,
        "color_rgb": [
          166,
          125,
          55
        ],
        "area_px": 840,
        "centroid_lat": 31.643,
        "centroid_lon": -7.98
      },
      "geometry": {
        "type": "Polygon",
        "coordinates": [
          [
            [
              -7.98,
              31.6458
            ],
            [
              -7.978237,
              31.645265
            ],
            [
              -7.977147,
              31.643865
            ],
            [
              -7.977147,
              31.642135
            ],
            [
              -7.978237,
              31.640735
            ],
            [
              -7.98,
              31.6402
            ],
            [
              -7.981763,
              31.640735
            ],
            [
              -7.982853,
              31.642135
            ],
            [
              -7.982853,
              31.643865
            ],
            [
              -7.981763,
              31.645265
            ],
            [
              -7.98,
              31.6458
            ]
          ]
        ]
      }
    },
    {
      "type": "Feature",
      "properties": {
        "name": "Ain Itti",
        "id": 65,
        "color_rgb": [
          120,
          190,
          220
        ],
        "area_px": 700,
        "centroid_lat": 31.634,
        "centroid_lon": -7.982
      },
      "geometry": {
        "type": "Polygon",
        "coordinates": [
          [
            [
              -7.982,
              31.6365
            ],
            [
              -7.980354,
              31.636023
            ],
            [
              -7.979337,
              31.634773
            ],
            [
              -7.979337,
              31.633227
            ],
            [
              -7.980354,
              31.631977
            ],
            [
              -7.982,
              31.6315
            ],
            [
              -7.983646,
              31.631977
            ],
            [
              -7.984663,
              31.633227
            ],
            [
              -7.984663,
              31.634773
            ],
            [
              -7.983646,
              31.636023
            ],
            [
              -7.982,
              31.6365
            ]
          ]
        ]
      }
    },
    {
      "type": "Feature",
      "properties": {
        "name": "Semlalia",
        "id": 66,
        "color_rgb": [
          255,
          255,
          0
        ],
        "area_px": 270,
        "centroid_lat": 31.628,
        "centroid_lon": -8.003
      },
      "geometry": {
        "type": "Polygon",
        "coordinates": [
          [
            [
              -8.003,
              31.6295
            ],
            [
              -8.001942,
              31.629214
            ],
            [
              -8.001288,
              31.628464
            ],
            [
              -8.001288,
              31.627536
            ],
            [
              -8.001942,
              31.626786
            ],
            [
              -8.003,
              31.6265
            ],
            [
              -8.004058,
              31.626786
            ],
            [
              -8.004712,
              31.627536
            ],
            [
              -8.004712,
              31.628464
            ],
            [
              -8.004058,
              31.629214
            ],
            [
              -8.003,
              31.6295
            ]
          ]
        ]
      }
    },
    {
      "type": "Feature",
      "properties": {
        "name": "Mouzdaïna",
        "id": 67,
        "color_rgb": [
          100,
          255,
          0
        ],
        "area_px": 270,
        "centroid_lat": 31.628,
        "centroid_lon": -7.999
      },
      "geometry": {
        "type": "Polygon",
        "coordinates": [
          [
            [
              -7.999,
              31.6295
            ],
            [
              -7.997942,
              31.629214
            ],
            [
              -7.997288,
              31.628464
            ],
            [
              -7.997288,
              31.627536
            ],
            [
              -7.997942,
              31.626786
            ],
            [
              -7.999,
              31.6265
            ],
            [
              -8.000058,
              31.626786
            ],
            [
              -8.000712,
              31.627536
            ],
            [
              -8.000712,
              31.628464
            ],
            [
              -8.000058,
              31.629214
            ],
            [
              -7.999,
              31.6295
            ]
          ]
        ]
      }
    },
    {
      "type": "Feature",
      "properties": {
        "name": "Assif",
        "id": 68,
        "color_rgb": [
          200,
          255,
          0
        ],
        "area_px": 360,
        "centroid_lat": 31.63,
        "centroid_lon": -7.997
      },
      "geometry": {
        "type": "Polygon",
        "coordinates": [
          [
            [
              -7.997,
              31.6318
            ],
            [
              -7.995824,
              31.631456
            ],
            [
              -7.995098,
              31.630556
            ],
            [
              -7.995098,
              31.629444
            ],
            [
              -7.995824,
              31.628544
            ],
            [
              -7.997,
              31.6282
            ],
            [
              -7.998176,
              31.628544
            ],
            [
              -7.998902,
              31.629444
            ],
            [
              -7.998902,
              31.630556
            ],
            [
              -7.998176,
              31.631456
            ],
            [
              -7.997,
              31.6318
            ]
          ]
        ]
      }
    },
    {
      "type": "Feature",
      "properties": {
        "name": "Sidi Abbad",
        "id": 69,
        "color_rgb": [
          0,
          80,
          200
        ],
        "area_px": 440,
        "centroid_lat": 31.626,
        "centroid_lon": -8.003
      },
      "geometry": {
        "type": "Polygon",
        "coordinates": [
          [
            [
              -8.003,
              31.628
            ],
            [
              -8.001707,
              31.627618
            ],
            [
              -8.000908,
              31.626618
            ],
            [
              -8.000908,
              31.625382
            ],
            [
              -8.001707,
              31.624382
            ],
            [
              -8.003,
              31.624
            ],
            [
              -8.004293,
              31.624382
            ],
            [
              -8.005092,
              31.625382
            ],
            [
              -8.005092,
              31.626618
            ],
            [
              -8.004293,
              31.627618
            ],
            [
              -8.003,
              31.628
            ]
          ]
        ]
      }
    },
    {
      "type": "Feature",
      "properties": {
        "name": "Harti",
        "id": 71,
        "color_rgb": [
          0,
          50,
          180
        ],
        "area_px": 360,
        "centroid_lat": 31.624,
        "centroid_lon": -8
      },
      "geometry": {
        "type": "Polygon",
        "coordinates": [
          [
            [
              -8,
              31.6258
            ],
            [
              -7.998824,
              31.625456
            ],
            [
              -7.998098,
              31.624556
            ],
            [
              -7.998098,
              31.623444
            ],
            [
              -7.998824,
              31.622544
            ],
            [
              -8,
              31.6222
            ],
            [
              -8.001176,
              31.622544
            ],
            [
              -8.001902,
              31.623444
            ],
            [
              -8.001902,
              31.624556
            ],
            [
              -8.001176,
              31.625456
            ],
            [
              -8,
              31.6258
            ]
          ]
        ]
      }
    }
  ]
}